NORAD_CAT_ID,OBJECT_NAME,OBJECT_TYPE,EPOCH,MEAN_MOTION,ECCENTRICITY,INCLINATION,RA_OF_ASC_NODE,ARG_OF_PERICENTER,MEAN_ANOMALY,BSTAR,MEAN_MOTION_DOT,MEAN_MOTION_DDOT,TLE_LINE0,TLE_LINE1,TLE_LINE2,SEMIMAJOR_AXIS,PERIOD,APOGEE,PERIGEE,DECAYED
52000.0,STARLINK-3653,PAYLOAD,2024-05-02 10:31:27,15.08835008,0.0001407,53.2154,174.8416,86.3085,273.8068,-3.4578e-05,-8.38e-06,0.0,0 STARLINK-3653,1 52000U 22025AW  24123.43851248 -.00000838  00000-0 -34578-4 0  9997,2 52000  53.2154 174.8416 0001407  86.3085 273.8068 15.08835008118835,6917.896,95.438,540.734,538.787,0.0
52000.0,STARLINK-3653,PAYLOAD,2024-05-03 02:25:18,15.08842853,0.0001584,53.2143,171.8668,91.036,269.0813,0.00010135,1.325e-05,0.0,0 STARLINK-3653,1 52000U 22025AW  24124.10090806  .00001325  00000-0  10135-3 0  9999,2 52000  53.2143 171.8668 0001584  91.0360 269.0813 15.08842853120467,6917.872,95.437,540.832,538.641,0.0
52000.0,STARLINK-3653,PAYLOAD,2024-05-03 10:22:13,15.08849362,0.000147,53.2153,170.3811,94.7986,265.3174,0.00026667,3.96e-05,0.0,0 STARLINK-3653,1 52000U 22025AW  24124.43210556  .00003960  00000-0  26667-3 0  9995,2 52000  53.2153 170.3811 0001470  94.7986 265.3174 15.08849362118985,6917.852,95.437,540.734,538.7,0.0
52000.0,STARLINK-3653,PAYLOAD,2024-05-03 19:54:32,15.08861371,0.0001296,53.215,168.5956,80.0357,280.0781,0.00017406,2.485e-05,0.0,0 STARLINK-3653,1 52000U 22025AW  24124.82953745  .00002485  00000-0  17406-3 0  9994,2 52000  53.2150 168.5956 0001296  80.0357 280.0781 15.08861371120577,6917.815,95.436,540.577,538.784,0.0
52000.0,STARLINK-3653,PAYLOAD,2024-05-04 11:48:24,15.08830341,0.0001293,53.2142,165.622,80.353,279.7608,-0.00017825,-3.123e-05,0.0,0 STARLINK-3653,1 52000U 22025AW  24125.49195081 -.00003123  00000-0 -17825-3 0  9996,2 52000  53.2142 165.6220 0001293  80.3530 279.7608 15.08830341120670,6917.91,95.438,540.669,538.88,0.0
52000.0,STARLINK-3653,PAYLOAD,2024-05-05 11:39:12,15.08836816,0.0001344,53.2142,161.1616,78.9576,281.1567,0.00068913,0.00010696,0.0,0 STARLINK-3653,1 52000U 22025AW  24126.48556063  .00010696  00000-0  68913-3 0  9992,2 52000  53.2142 161.1616 0001344  78.9576 281.1567 15.08836816119290,6917.89,95.438,540.685,538.825,0.0
52000.0,STARLINK-3653,PAYLOAD,2024-05-05 19:36:08,15.08843959,0.0001369,53.2141,159.6747,78.6016,281.513,0.00075394,0.00011733,0.0,0 STARLINK-3653,1 52000U 22025AW  24126.81676060  .00011733  00000-0  75394-3 0  9993,2 52000  53.2141 159.6747 0001369  78.6016 281.5130 15.08843959120871,6917.868,95.437,540.68,538.786,0.0
52000.0,STARLINK-3653,PAYLOAD,2024-05-06 08:19:12,15.08859873,0.0001409,53.214,157.2957,77.6171,282.4979,0.00097083,0.00015205,0.0,0 STARLINK-3653,1 52000U 22025AW  24127.34667659  .00015205  00000-0  97083-3 0  9993,2 52000  53.2140 157.2957 0001409  77.6171 282.4979 15.08859873119425,6917.82,95.436,540.659,538.71,0.0
52000.0,STARLINK-3653,PAYLOAD,2024-05-06 19:26:54,15.0886403,0.0001392,53.2137,155.2141,76.4433,283.6714,0.00075231,0.00011713,0.0,0 STARLINK-3653,1 52000U 22025AW  24127.81035123  .00011713  00000-0  75231-3 0  9991,2 52000  53.2137 155.2141 0001392  76.4433 283.6714 15.08864030119491,6917.807,95.436,540.635,538.709,0.0
52000.0,STARLINK-3653,PAYLOAD,2024-05-07 04:59:13,15.08854061,0.0001378,53.2142,153.4299,81.6869,278.428,0.00034725,5.245e-05,0.0,0 STARLINK-3653,1 52000U 22025AW  24128.20779155  .00005245  00000-0  34725-3 0  9991,2 52000  53.2142 153.4299 0001378  81.6869 278.4280 15.08854061121087,6917.837,95.437,540.656,538.749,0.0
52000.0,STARLINK-3653,PAYLOAD,2024-05-07 11:20:45,15.08846875,0.0001412,53.2145,152.2407,81.907,278.2083,0.00022388,3.278e-05,0.0,0 STARLINK-3653,1 52000U 22025AW  24128.47275106  .00003278  00000-0  22388-3 0  9993,2 52000  53.2145 152.2407 0001412  81.9070 278.2083 15.08846875119590,6917.859,95.437,540.701,538.748,0.0
52000.0,STARLINK-3653,PAYLOAD,2024-05-08 04:50:00,15.08844085,0.0001417,53.2139,148.9685,83.8599,276.2554,0.00027682,4.121e-05,0.0,0 STARLINK-3653,1 52000U 22025AW  24129.20139279  .00004121  00000-0  27682-3 0  9995,2 52000  53.2139 148.9685 0001417  83.8599 276.2554 15.08844085121231,6917.868,95.437,540.713,538.753,0.0
52000.0,STARLINK-3653,PAYLOAD,2024-05-08 11:11:32,15.08843483,0.0001443,53.2156,147.7796,84.4297,275.686,5.0874e-05,5.22e-06,0.0,0 STARLINK-3653,1 52000U 22025AW  24129.46635260  .00000522  00000-0  50874-4 0  9995,2 52000  53.2156 147.7796 0001443  84.4297 275.6860 15.08843483119748,6917.87,95.437,540.733,538.736,0.0
52000.0,STARLINK-3653,PAYLOAD,2024-05-09 04:40:47,15.08841315,0.0001368,53.2146,144.5079,85.2312,274.8836,0.00015747,2.219e-05,0.0,0 STARLINK-3653,1 52000U 22025AW  24130.19499447  .00002219  00000-0  15747-3 0  9996,2 52000  53.2146 144.5079 0001368  85.2312 274.8836 15.08841315121388,6917.876,95.437,540.688,538.795,0.0
52000.0,STARLINK-3653,PAYLOAD,2024-05-09 07:51:33,15.08841385,0.0001336,53.2144,143.9128,83.9036,276.2108,0.00012391,1.685e-05,0.0,0 STARLINK-3653,1 52000U 22025AW  24130.32747404  .00001685  00000-0  12391-3 0  9998,2 52000  53.2144 143.9128 0001336  83.9036 276.2108 15.08841385119873,6917.876,95.437,540.665,538.817,0.0
52000.0,STARLINK-3653,PAYLOAD,2024-05-10 07:42:20,15.08840098,0.0001284,53.214,139.4523,82.8526,277.2612,9.7902e-05,1.271e-05,0.0,0 STARLINK-3653,1 52000U 22025AW  24131.32107516  .00001271  00000-0  97902-4 0  9996,2 52000  53.2140 139.4523 0001284  82.8526 277.2612 15.08840098120022,6917.88,95.438,540.633,538.857,0.0
52000.0,STARLINK-3653,PAYLOAD,2024-05-10 17:14:39,15.08844691,0.0001313,53.2143,137.6678,82.6379,277.4762,0.00015275,2.144e-05,0.0,0 STARLINK-3653,1 52000U 22025AW  24131.71851278  .00002144  00000-0  15275-3 0  9992,2 52000  53.2143 137.6678 0001313  82.6379 277.4762 15.08844691120080,6917.866,95.437,540.639,538.823,0.0
52000.0,STARLINK-3653,PAYLOAD,2024-05-11 10:43:53,15.08867379,0.0001636,53.2152,134.3986,95.2711,264.8468,0.00071577,0.0001113,0.0,0 STARLINK-3653,1 52000U 22025AW  24132.44714944  .00011130  00000-0  71577-3 0  9993,2 52000  53.2152 134.3986 0001636  95.2711 264.8468 15.08867379121727,6917.797,95.436,540.793,538.53,0.0
52000.0,STARLINK-3653,PAYLOAD,2024-05-11 17:05:25,15.08874307,0.0001378,53.2151,133.2099,68.8181,291.2958,0.00068116,0.00010579,0.0,0 STARLINK-3653,1 52000U 22025AW  24132.71209904  .00010579  00000-0  68116-3 0  9999,2 52000  53.2151 133.2099 0001378  68.8181 291.2958 15.08874307120231,6917.776,95.435,540.594,538.687,0.0
52000.0,STARLINK-3653,PAYLOAD,2024-05-12 04:13:09,15.08817816,0.0001523,53.2147,131.1273,81.8748,278.2417,-0.0004723,-7.792e-05,0.0,0 STARLINK-3653,1 52000U 22025AW  24133.17579923 -.00007792  00000-0 -47230-3 0  9990,2 52000  53.2147 131.1273 0001523  81.8748 278.2417 15.08817816121837,6917.948,95.439,540.867,538.76,0.0
52000.0,STARLINK-3653,PAYLOAD,2024-05-12 08:59:18,15.0881724,0.0001569,53.2152,130.2355,80.3479,279.769,-0.00039147,-6.509e-05,0.0,0 STARLINK-3653,1 52000U 22025AW  24133.37452279 -.00006509  00000-0 -39147-3 0  9999,2 52000  53.2152 130.2355 0001569  80.3479 279.7690 15.08817240120333,6917.95,95.439,540.9,538.73,0.0
52000.0,STARLINK-3653,PAYLOAD,2024-05-12 16:56:14,15.08829548,0.0001608,53.2147,128.7494,71.8195,288.2972,5.0943e-05,5.23e-06,0.0,0 STARLINK-3653,1 52000U 22025AW  24133.70572101  .00000523  00000-0  50943-4 0  9999,2 52000  53.2147 128.7494 0001608  71.8195 288.2972 15.08829548121914,6917.912,95.438,540.89,538.665,0.0
52000.0,STARLINK-3653,PAYLOAD,2024-05-13 08:50:05,15.08855493,0.0001615,53.2151,125.7762,64.4049,295.711,0.0011739,0.00018452,0.0,0 STARLINK-3653,1 52000U 22025AW  24134.36812114  .00018452  00000-0  11739-2 0  9991,2 52000  53.2151 125.7762 0001615  64.4049 295.7110 15.08855493122015,6917.833,95.437,540.815,538.581,0.0
52000.0,STARLINK-3653,PAYLOAD,2024-05-13 23:08:32,15.08880721,0.0001629,53.2155,123.1002,65.5293,294.5869,0.001165,0.00018322,0.0,0 STARLINK-3653,1 52000U 22025AW  24134.96426815  .00018322  00000-0  11650-2 0  9994,2 52000  53.2155 123.1002 0001629  65.5293 294.5869 15.08880721120575,6917.756,95.435,540.748,538.494,0.0
52000.0,STARLINK-3653,PAYLOAD,2024-05-14 05:30:04,15.08870771,0.000104,53.2164,121.9084,63.4892,296.6207,0.00052584,8.098e-05,0.0,0 STARLINK-3653,1 52000U 22025AW  24135.22922404  .00008098  00000-0  52584-3 0  9990,2 52000  53.2164 121.9084 0001040  63.4892 296.6207 15.08870771122148,6917.786,95.436,540.371,538.932,0.0
52000.0,STARLINK-3653,PAYLOAD,2024-05-14 16:37:47,15.08841844,0.0001684,53.216,119.8255,89.878,270.2405,-0.00017251,-3.033e-05,0.0,0 STARLINK-3653,1 52000U 22025AW  24135.69291053 -.00003033  00000-0 -17251-3 0  9998,2 52000  53.2160 119.8255 0001684  89.8780 270.2405 15.08841844122217,6917.875,95.437,540.905,538.575,0.0
52000.0,STARLINK-3653,PAYLOAD,2024-05-14 22:59:20,15.08846306,0.0001764,53.2166,118.6387,76.1126,284.0062,0.00046281,7.087e-05,0.0,0 STARLINK-3653,1 52000U 22025AW  24135.95787184  .00007087  00000-0  46281-3 0  9998,2 52000  53.2166 118.6387 0001764  76.1126 284.0062 15.08846306120722,6917.861,95.437,540.946,538.506,0.0
52000.0,STARLINK-3653,PAYLOAD,2024-05-15 08:31:39,15.08849525,0.0001548,53.2161,116.8536,84.2519,275.8649,0.0011225,0.00017626,0.0,0 STARLINK-3653,1 52000U 22025AW  24136.35531376  .00017626  00000-0  11225-2 0  9992,2 52000  53.2161 116.8536 0001548  84.2519 275.8649 15.08849525120780,6917.851,95.437,540.787,538.645,0.0
52000.0,STARLINK-3653,PAYLOAD,2024-05-15 22:50:07,15.08842797,0.0001837,53.2167,114.1738,94.0889,266.0313,0.00048307,7.409e-05,0.0,0 STARLINK-3653,1 52000U 22025AW  24136.95147643  .00007409  00000-0  48307-3 0  9998,2 52000  53.2167 114.1738 0001837  94.0889 266.0313 15.08842797120875,6917.872,95.437,541.008,538.466,0.0
52000.0,STARLINK-3653,PAYLOAD,2024-05-16 05:11:40,15.08839672,0.000157,53.2161,112.9854,89.6395,270.4777,0.00025612,3.79e-05,0.0,0 STARLINK-3653,1 52000U 22025AW  24137.21643704  .00003790  00000-0  25612-3 0  9990,2 52000  53.2161 112.9854 0001570  89.6395 270.4777 15.08839672122446,6917.881,95.438,540.832,538.66,0.0
